H1 CPF 01  gfz 2021 12 06 13  8394 tandemx   
H2 1003001  6202 36605    2021 12 05 12 59 42 2021 12 10 00 00 42   120 1 1  0 0 0
H9
10 0 59555  56142.000000  0   -4452871.662  -3865386.267   3552582.613
10 0 59555  56262.000000  0   -4890865.995  -3990092.643   2750928.979
10 0 59555  56382.000000  0   -5244848.646  -4038095.007   1900827.405
10 0 59555  56502.000000  0   -5507294.264  -4010090.758   1017248.883
10 0 59555  56622.000000  0   -5672320.260  -3908236.277    115757.087
10 0 59555  56742.000000  0   -5735817.759  -3736079.382   -787773.830
10 0 59555  56862.000000  0   -5695547.316  -3498463.355  -1677448.493
10 0 59555  56982.000000  0   -5551195.141  -3201403.786  -2537639.537
10 0 59555  57102.000000  0   -5304390.055  -2851943.276  -3353267.890
10 0 59555  57222.000000  0   -4958681.979  -2457988.055  -4110070.106
10 0 59555  57342.000000  0   -4519483.102  -2028130.553  -4794847.046
10 0 59555  57462.000000  0   -3993973.401  -1571462.987  -5395690.040
10 0 59555  57582.000000  0   -3390973.429  -1097385.614  -5902180.653
10 0 59555  57702.000000  0   -2720788.064   -615414.355  -6305560.826
10 0 59555  57822.000000  0   -1995025.038   -134992.211  -6598872.866
10 0 59555  57942.000000  0   -1226391.017    334691.810  -6777067.598
10 0 59555  58062.000000  0    -428471.227    784873.158  -6837080.902
10 0 59555  58182.000000  0     384505.508   1207371.116  -6777880.437
10 0 59555  58302.000000  0    1197913.132   1594732.685  -6600482.074
10 0 59555  58422.000000  0    1996986.029   1940361.703  -6307936.492
10 0 59555  58542.000000  0    2767081.885   2238630.164  -5905282.080
10 0 59555  58662.000000  0    3493946.469   2484969.671  -5399466.250
10 0 59555  58782.000000  0    4163975.166   2675942.019  -4799236.863
10 0 59555  58902.000000  0    4764470.474   2809288.591  -4115003.000
10 0 59555  59022.000000  0    5283888.232   2883956.148  -3358663.822
10 0 59555  59142.000000  0    5712066.240   2900098.540  -2543409.536
10 0 59555  59262.000000  0    6040433.388   2859054.942  -1683496.719
10 0 59555  59382.000000  0    6262190.606   2763302.261   -793998.435
10 0 59555  59502.000000  0    6372459.513   2616384.008    109462.822
10 0 59555  59622.000000  0    6368393.882   2422815.723   1010996.660
10 0 59555  59742.000000  0    6249250.512   2187970.217   1894730.753
10 0 59555  59862.000000  0    6016420.239   1917946.868   2745099.271
10 0 59555  59982.000000  0    5673413.939   1619425.070   3547126.106
10 0 59555  60102.000000  0    5225805.746   1299507.817   4286695.691
10 0 59555  60222.000000  0    4681134.029    965558.616   4950804.757
10 0 59555  60342.000000  0    4048766.473    625037.125   5527791.179
10 0 59555  60462.000000  0    3339729.241    285335.453   6007537.893
10 0 59555  60582.000000  0    2566505.019    -46379.061   6381644.517
10 0 59555  60702.000000  0    1742808.084   -363311.425   6643567.855
10 0 59555  60822.000000  0     883337.669   -659175.777   6788731.690
10 0 59555  60942.000000  0       3512.589   -928318.816   6814602.247
10 0 59555  61062.000000  0    -880805.750  -1165826.834   6720728.568
10 0 59555  61182.000000  0   -1753598.469  -1367615.559   6508749.090
10 0 59555  61302.000000  0   -2598977.697  -1530500.111   6182363.774
10 0 59555  61422.000000  0   -3401474.218  -1652244.524   5747275.060
10 0 59555  61542.000000  0   -4146324.188  -1731591.937   5211096.185
10 0 59555  61662.000000  0   -4819746.407  -1768274.146   4583223.362
10 0 59555  61782.000000  0   -5409204.625  -1762999.050   3874675.375
10 0 59555  61902.000000  0   -5903648.533  -1717415.972   3097902.644
10 0 59555  62022.000000  0   -6293729.332  -1634060.415   2266570.332
10 0 59555  62142.000000  0   -6571987.267  -1516280.076   1395317.075
10 0 59555  62262.000000  0   -6733002.800  -1368142.310    499490.448
10 0 59555  62382.000000  0   -6773506.349  -1194325.204   -405131.277
10 0 59555  62502.000000  0   -6692445.115   -999995.529  -1302626.246
10 0 59555  62622.000000  0   -6491004.633   -790676.860  -2177218.101
10 0 59555  62742.000000  0   -6172585.800   -572111.768  -3013559.896
10 0 59555  62862.000000  0   -5742738.388   -350121.729  -3797008.918
10 0 59555  62982.000000  0   -5209051.606   -130466.350  -4513884.809
10 0 59555  63102.000000  0   -4581006.799     81293.010  -5151705.479
10 0 59555  63222.000000  0   -3869797.014    279921.812  -5699398.488
10 0 59555  63342.000000  0   -3088116.410    460630.256  -6147483.753
10 0 59555  63462.000000  0   -2249926.802    619178.550  -6488224.991
10 0 59555  63582.000000  0   -1370206.432    751967.484  -6715751.973
10 0 59555  63702.000000  0    -464683.122    856113.540  -6826151.266
10 0 59555  63822.000000  0     450441.507    929507.180  -6817524.584
10 0 59555  63942.000000  0    1358773.400    970852.889  -6690019.065
10 0 59555  64062.000000  0    2244013.886    979691.619  -6445827.084
10 0 59555  64182.000000  0    3090246.473    956404.974  -6089152.361
10 0 59555  64302.000000  0    3882218.899    902200.816  -5626144.143
10 0 59555  64422.000000  0    4605615.827    819080.024  -5064801.678
10 0 59555  64542.000000  0    5247320.428    709785.633  -4414848.010
10 0 59555  64662.000000  0    5795659.072    577734.907  -3687572.029
10 0 59555  64782.000000  0    6240622.785    426934.840  -2895641.268
10 0 59555  64902.000000  0    6574061.837    261883.433  -2052888.119
10 0 59555  65022.000000  0    6789848.891     87458.009  -1174070.302
10 0 59555  65142.000000  0    6884002.957    -91206.464   -274610.026
10 0 59555  65262.000000  0    6854772.261   -268845.759    629680.998
10 0 59555  65382.000000  0    6702673.975   -440199.415   1522886.876
10 0 59555  65502.000000  0    6430487.994   -600144.167   2389276.487
10 0 59555  65622.000000  0    6043204.336   -743824.474   3213590.402
10 0 59555  65742.000000  0    5547924.897   -866776.527   3981316.431
10 0 59555  65862.000000  0    4953726.207   -965042.693   4678949.567
10 0 59555  65982.000000  0    4271482.911  -1035274.543   5294232.241
10 0 59555  66102.000000  0    3513658.212  -1074819.592   5816368.266
10 0 59555  66222.000000  0    2694067.318  -1081791.917   6236208.597
10 0 59555  66342.000000  0    1827618.724  -1055125.247   6546406.005
10 0 59555  66462.000000  0     930038.669   -994607.467   6741538.741
10 0 59555  66582.000000  0      17582.030   -900895.133   6818199.714
10 0 59555  66702.000000  0    -893262.534   -775508.302   6775050.905
10 0 59555  66822.000000  0   -1786069.248   -620806.123   6612844.596
10 0 59555  66942.000000  0   -2644769.903   -439942.739   6334410.919
10 0 59555  67062.000000  0   -3453942.309   -236804.633   5944612.619
10 0 59555  67182.000000  0   -4199089.613    -15930.273   5450266.341
10 0 59555  67302.000000  0   -4866905.312    217586.638   4860029.633
10 0 59555  67422.000000  0   -5445518.149    458208.205   4184254.651
10 0 59555  67542.000000  0   -5924711.980    700076.285   3434810.158
10 0 59555  67662.000000  0   -6296115.327    937146.529   2624875.347
10 0 59555  67782.000000  0   -6553357.655   1163329.650   1768707.350
10 0 59555  67902.000000  0   -6692187.320   1372636.004    881386.599
10 0 59555  68022.000000  0   -6710548.307   1559320.556    -21455.905
10 0 59555  68142.000000  0   -6608611.503   1718024.164   -923923.203
10 0 59555  68262.000000  0   -6388760.538   1843906.815  -1810141.087
10 0 59555  68382.000000  0   -6055534.374   1932770.657  -2664544.983
10 0 59555  68502.000000  0   -5615526.515   1981169.659  -3472160.620
10 0 59555  68622.000000  0   -5077243.214   1986501.766  -4218870.049
10 0 59555  68742.000000  0   -4450926.734   1947082.214  -4891657.059
10 0 59555  68862.000000  0   -3748348.790   1862196.902  -5478828.514
10 0 59555  68982.000000  0   -2982580.415   1732135.175  -5970208.341
10 0 59555  69102.000000  0   -2167743.510   1558201.464  -6357303.755
10 0 59555  69222.000000  0   -1318746.847   1342705.866  -6633440.979
10 0 59555  69342.000000  0    -451014.171   1088933.858  -6793867.928
10 0 59555  69462.000000  0     419790.806    801096.319  -6835826.305
10 0 59555  69582.000000  0    1278039.171    484261.222  -6758594.866
10 0 59555  69702.000000  0    2108411.951    144266.147  -6563501.951
10 0 59555  69822.000000  0    2896167.316   -212386.345  -6253904.309
10 0 59555  69942.000000  0    3627398.502   -578648.802  -5835135.829
10 0 59555  70062.000000  0    4289276.850   -947063.365  -5314423.821
10 0 59555  70182.000000  0    4870278.631  -1309908.546  -4700776.756
10 0 59555  70302.000000  0    5360392.131  -1659356.922  -4004839.847
10 0 59555  70422.000000  0    5751299.023  -1987639.408  -3238720.255
10 0 59555  70542.000000  0    6036526.571  -2287213.502  -2415783.724
10 0 59555  70662.000000  0    6211566.161  -2550931.816  -1550424.934
10 0 59555  70782.000000  0    6273954.547  -2772206.322   -657815.903
10 0 59555  70902.000000  0    6223315.962  -2945164.541    246363.210
10 0 59555  71022.000000  0    6061362.744  -3064793.420   1146205.677
10 0 59555  71142.000000  0    5791854.616  -3127067.063   2025867.046
10 0 59555  71262.000000  0    5420514.130  -3129054.432   2869853.696
10 0 59555  71382.000000  0    4954903.723  -3069004.521   3663303.618
10 0 59555  71502.000000  0    4404266.376  -2946405.519   4392253.676
10 0 59555  71622.000000  0    3779336.798  -2762019.329   5043888.181
10 0 59555  71742.000000  0    3092123.869  -2517889.740   5606765.951
10 0 59555  71862.000000  0    2355671.774  -2217322.577   6071018.038
10 0 59555  71982.000000  0    1583806.721  -1864840.640   6428515.923
10 0 59555  72102.000000  0     790873.210  -1466114.196   6673008.105
10 0 59555  72222.000000  0      -8535.113  -1027867.951   6800223.354
10 0 59555  72342.000000  0    -799844.281   -557766.210   6807940.132
10 0 59555  72462.000000  0   -1568764.546    -64278.750   6696022.406
10 0 59555  72582.000000  0   -2301547.324    443471.422   6466422.004
99
